KUIPER-00089            
1 64834U 25151U   25293.00001157  .00007387  00000+0  55090-3 0  9990
2 64834  51.8931 189.1756 0002934 144.4241 119.6478 15.03782129  5738
KUIPER-00090            
1 64835U 25151V   25293.00001157 -.00467003  00000+0 -20938-1 0  9999
2 64835  51.8860 186.4611 0004931 171.6096 291.5824 15.22838685  4979
KUIPER-00091            
1 64836U 25151W   25293.00001157  .00002013  00000+0  13721-3 0  9998
2 64836  51.8843 187.9850 0007675 157.3673 240.9278 15.10827296  4796
KUIPER-00092            
1 64837U 25151X   25293.00001157 -.01007816  00000+0 -11816+0 0  9997
2 64837  51.8973 192.8449 0007373 132.5933 124.4646 14.87660461  2772
KUIPER-00093            
1 64838U 25151Y   25293.00001157 -.00024724  00000+0 -32064-2 0  9995
2 64838  51.8992 195.2125 0013971 140.6389 207.6176 14.80110263  2436
KUIPER-00094            
1 64839U 25151Z   25293.00001157 -.00887195  00000+0 -65450-1 0  9999
2 64839  51.8879 189.2349 0006746 148.9058 339.9732 15.05650956  5388
KUIPER-00081            
1 65132U 25171A   25292.65625770  .00074989  00000+0  19709-2 0  9995
2 65132  51.8763  70.8026 0004657   5.5937 354.5102 15.37911394 11884
KUIPER-00088            
1 65133U 25171B   25293.00001157 -.00847582  00000+0 -47427-1 0  9999
2 65133  51.8880  71.0542 0006446   3.8776 248.0318 15.15473451  5805
